ONEWEB-0098             
1 45442U 20020U   24155.45154354 -.00000490  00000+0 -14183-2 0  9994
2 45442  87.8962 169.0440 0002143  88.8434 271.2939 13.11417619205161
ONEWEB-0055             
1 45443U 20020V   24155.51345225 -.00000187  00000+0 -56421-3 0  9996
2 45443  87.8961 169.0337 0002182  90.2638 269.8740 13.11413389205143
ONEWEB-0093             
1 45444U 20020W   24155.48886653  .00000600  00000+0  16580-2 0  9997
2 45444  87.8962 169.0202 0002264  93.5656 266.5731 13.11415531205205
ONEWEB-0029             
1 45445U 20020X   24155.50750229  .00000082  00000+0  19495-3 0  9993
2 45445  87.8961 169.0301 0002060  97.1362 263.0000 13.11412848205189
ONEWEB-0068             
1 45446U 20020Y   24155.48292250  .00000514  00000+0  14150-2 0  9998
2 45446  87.8963 169.0202 0002119  95.0691 265.0679 13.11419008205122
ONEWEB-0046             
1 45447U 20020Z   24155.78557189  .00000442  00000+0  12116-2 0  9997
2 45447  87.8964 168.9726 0001753  96.3982 263.7345 13.11417581205188
ONEWEB-0063             
1 45448U 20020AA  24155.50920724 -.00000047  00000+0 -16974-3 0  9997
2 45448  87.8961 169.0283 0001712  90.3583 269.7742 13.11416131205224
ONEWEB-0019             
1 45449U 20020AB  24155.78896345  .00000513  00000+0  14117-2 0  9991
2 45449  87.8967 168.9756 0002033  85.6094 274.5266 13.11418795205116
